COSMOS 2419 (714)       
1 28915U 05050A   16275.53842236 -.00000004  00000-0  00000+0 0  9993
2 28915  65.3721  74.5736 0014648 359.4935  10.0436  2.13106247 83825
COSMOS 2425 (716)       
1 29670U 06062A   16275.60493537 -.00000018  00000-0  10000-3 0  9990
2 29670  65.5845 313.5780 0020208 339.0822 137.2549  2.13104946 76021
COSMOS 2426 (717)       
1 29671U 06062B   16276.10800646 -.00000019  00000-0  10000-3 0  9991
2 29671  65.6010 313.6444 0018567 172.0622 190.3521  2.13102970 76040
COSMOS 2424 (715)       
1 29672U 06062C   16276.42776194 -.00000020  00000-0  10000-3 0  9999
2 29672  65.5861 313.5595 0017827 171.5262 252.2745  2.13102305 76040
COSMOS 2433 (720)       
1 32275U 07052A   16275.73623369 -.00000004  00000-0  10000-3 0  9992
2 32275  65.3862  74.3410 0001210 189.8092 219.3599  2.13104816 69549
COSMOS 2432 (719)       
1 32276U 07052B   16276.03964900 -.00000004  00000-0  10000-3 0  9996
2 32276  65.3996  74.3984 0009979 347.0059 248.5172  2.13104127 69541
COSMOS 2434 (721)       
1 32393U 07065A   16275.87087965 -.00000019  00000-0  00000+0 0  9999
2 32393  65.2019 312.8405 0003637 149.9511 253.7784  2.13102909 68251
COSMOS 2436 (723)       
1 32395U 07065C   16276.34133264 -.00000020  00000-0  10000-3 0  9995
2 32395  65.2149 312.8689 0015570 346.2585 150.4082  2.13102913 68195
COSMOS 2443 (725)       
1 33379U 08046B   16275.77124872 -.00000006  00000-0  10000-3 0  9993
2 33379  65.3164  73.7459 0017244 179.8333 159.9220  2.13101188 62404
COSMOS 2456 (730)       
1 36111U 09070A   16276.56999206  .00000008  00000-0  00000+0 0  9993
2 36111  64.1811 192.3882 0004769 310.9736  79.1190  2.13102792 52936
COSMOS 2457 (733)       
1 36112U 09070B   16276.50425197  .00000007  00000-0  00000+0 0  9990
2 36112  64.1631 192.3152 0006481 175.2957 294.1320  2.13101743 52936
COSMOS 2458 (734)       
1 36113U 09070C   16275.71792154  .00000000  00000-0  10000-3 0  9991
2 36113  64.1680 192.3483 0001462 330.1772 303.6308  2.13101838 52914
COSMOS 2459 (731)       
1 36400U 10007A   16276.42091588 -.00000005  00000-0  10000-3 0  9990
2 36400  65.2963  73.4548 0026765 357.5634  81.2957  2.13102219 51285
COSMOS 2461 (735)       
1 36401U 10007B   16276.48751245 -.00000005  00000-0  10000-3 0  9990
2 36401  65.2893  73.4327 0008328  82.0184 318.5309  2.13102262 51283
COSMOS 2460 (732)       
1 36402U 10007C   16275.90237448 -.00000006  00000-0  10000-3 0  9992
2 36402  65.2793  73.4289 0002448 109.2010 244.1188  2.13101828 51261
COSMOS 2465 (737)       
1 37138U 10041B   16275.70250347 -.00000020  00000-0  00000+0 0  9999
2 37138  64.8010 312.9657 0036778 174.8287 142.8701  2.13103431 47332
COSMOS 2464 (736)       
1 37139U 10041C   16275.59703932 -.00000019  00000-0  00000-0 0  9999
2 37139  64.8096 312.9674 0020637   8.1722  53.1749  2.13102617 47348
COSMOS 2471 (701K)      
1 37372U 11009A   16275.80102594 -.00000006  00000-0  00000-0 0  9990
2 37372  65.2757  73.3790 0007046 221.6214 186.8944  2.13102806 43549
COSMOS 2474 (742)       
1 37829U 11055A   16275.59238216 -.00000001  00000-0  00000+0 0  9999
2 37829  64.5059 192.8779 0009012 252.3970 328.6481  2.13101931 38906
COSMOS 2476 (744)       
1 37867U 11064A   16275.52270624 -.00000002  00000-0  00000+0 0  9994
2 37867  64.4856 192.9589 0018022 246.7379 326.7250  2.13101993 38252
COSMOS 2477 (745)       
1 37868U 11064B   16276.43292142  .00000007  00000-0  00000+0 0  9999
2 37868  64.4939 192.9699 0016022 247.8025 123.2080  2.13101931 38236
COSMOS 2475 (743)       
1 37869U 11064C   16276.48690514  .00000007  00000-0  00000+0 0  9990
2 37869  64.5003 192.9578 0021277 273.8659  94.7817  2.13102247 38248
COSMOS 2485 (747)       
1 39155U 13019A   16275.46489374 -.00000002  00000-0  00000+0 0  9995
2 39155  64.6537 192.9339 0018423 241.6611 332.5600  2.13102117 26725
COSMOS 2492 (754)       
1 39620U 14012A   16275.52785670 -.00000006  00000-0  10000-3 0  9990
2 39620  65.1679  73.4147 0013282 339.5625 316.4794  2.13103424 19678
COSMOS 2500 (755)       
1 40001U 14032A   16275.88962889 -.00000006  00000-0  00000-0 0  9991
2 40001  65.1093  73.4182 0006331 183.6114 253.5430  2.13102869 17904
COSMOS 2501 (702K)      
1 40315U 14075A   16275.61581348 -.00000021  00000-0  00000+0 0  9990
2 40315  64.5733 314.3915 0019352 233.3933 154.4734  2.13101664 14305
COSMOS 2514 (751)       
1 41330U 16008A   16275.60961470 -.00000006  00000-0  00000-0 0  9997
2 41330  64.9092  73.6373 0008904 200.1746 201.4725  2.13103485  5062
COSMOS 2516 (753)       
1 41554U 16032A   16276.34118216 -.00000023  00000-0  00000+0 0  9994
2 41554  64.7544 314.0657 0013940 224.0074 273.0102  2.13101579  2683
